OBJECT_NAME,OBJECT_ID,EPOCH,MEAN_MOTION,ECCENTRICITY,INCLINATION,RA_OF_ASC_NODE,ARG_OF_PERICENTER,MEAN_ANOMALY,EPHEMERIS_TYPE,CLASSIFICATION_TYPE,NORAD_CAT_ID,ELEMENT_SET_NO,REV_AT_EPOCH,BSTAR,MEAN_MOTION_DOT,MEAN_MOTION_DDOT
PERSEUS-M1,2014-033AF,2026-06-09T01:47:33.690336,14.95610260,.00107256,97.9642,104.0737,332.5515,27.5137,0,U,40039,999,64942,.13384169E-3,.1427E-4,0
POLYITAN-1,2014-033AJ,2026-06-09T00:34:59.729088,15.32968455,.00079895,98.0953,185.5149,165.0271,195.1207,0,U,40042,999,65234,.50413096E-3,.15996E-3,0
TIGRISAT,2014-033AK,2026-06-08T23:07:28.077888,14.85130632,.00507001,97.7823,310.1645,101.4521,259.2395,0,U,40043,999,64440,.2827626E-3,.242E-4,0
AEROCUBE 6A,2014-033AM,2026-06-09T05:00:28.822752,14.98019475,.00393706,97.7225,327.2428,44.5114,315.9260,0,U,40045,999,64542,.43006711E-3,.5102E-4,0
AEROCUBE 6B,2014-033AN,2026-06-08T21:14:35.027232,14.99481612,.00390009,97.7230,326.6943,37.4874,322.9057,0,U,40046,999,64551,.5262355E-3,.65E-4,0
CANX-4,2014-034C,2026-06-09T04:20:29.629536,14.81249771,.00136864,98.3133,35.1997,41.4631,318.7616,0,U,40055,999,64334,.1169708E-3,.855E-5,0
CANX-5,2014-034D,2026-06-09T04:18:22.281984,14.81266924,.00136957,98.3135,35.2414,41.5932,318.6319,0,U,40056,999,63415,.11810238E-3,.864E-5,0
UKUBE-1,2014-037F,2026-06-09T05:37:55.255584,15.13424303,.00021263,98.4239,162.6716,144.7688,215.3682,0,U,40074,999,64735,.42922303E-3,.7593E-4,0
BRITE-PL2 (HEWELIUSZ),2014-049B,2026-06-09T06:32:05.756640,14.94568700,.00151663,97.9089,272.2120,132.0173,228.2341,0,U,40119,999,64026,.18288975E-3,.1922E-4,0
AEROCUBE 5C,2015-058B,2026-06-09T01:22:33.140928,14.91414682,.01304432,64.7678,287.8809,66.4577,295.0176,0,U,40965,999,36444,.20116417E-3,.2192E-4,0
AEROCUBE 7,2015-058C,2026-06-09T00:14:22.430112,14.95672818,.0120157,64.7627,270.4275,64.9556,296.3975,0,U,40966,999,36473,.24013344E-3,.2914E-4,0
FOX-1A (AO-85),2015-058D,2026-06-08T18:24:19.848096,14.90929725,.01299696,64.7758,305.1507,59.8929,301.4993,0,U,40967,999,11231,.27655458E-3,.3039E-4,0
SINOD-D 1,2015-058E,2026-06-09T01:20:18.554784,14.95852380,.01185854,64.7760,284.3760,56.3257,304.9098,0,U,40968,999,11544,.24048214E-3,.2922E-4,0
SNAP-3 ALICE,2015-058G,2026-06-09T06:49:45.116544,15.58274483,.00303608,64.7496,131.2113,16.9431,343.2720,0,U,40970,999,11565,.13676752E-2,.107658E-2,0
LMRST-SAT,2015-058H,2026-06-09T02:56:34.454400,14.90552711,.01316639,64.7764,300.3679,61.7663,299.6668,0,U,40971,999,11235,.20612237E-3,.2204E-4,0
SNAP-3 EDDIE,2015-058J,2026-06-09T06:44:21.463872,15.59448461,.00301853,64.7419,122.0068,21.1073,339.1310,0,U,40972,999,11779,.13102802E-2,.107828E-2,0
PROPCUBE 3,2015-058K,2026-06-08T17:01:38.815392,14.94210956,.01236498,64.7692,279.0224,63.2696,298.1009,0,U,40973,999,11353,.28660388E-3,.3403E-4,0
BISONSAT,2015-058L,2026-06-09T05:59:24.806688,15.16023843,.0078445,64.7591,199.3038,50.5413,310.2616,0,U,40974,999,11441,.41939228E-3,.8555E-4,0
SNAP-3 JIMI,2015-058M,2026-06-08T08:02:52.169856,15.02222356,.01057191,64.7649,247.7776,58.9972,302.1477,0,U,40975,999,11289,.30224973E-3,.4322E-4,0
PROPCUBE 1 (FLORA),2015-058N,2026-06-08T22:27:35.682624,14.89182375,.01303895,64.7755,320.8090,64.1517,297.2973,0,U,40976,999,11503,.22786041E-3,.2356E-4,0
SINOD-D 3,2015-058P,2026-06-09T00:10:51.086208,14.93963071,.01188945,64.7734,301.3608,61.3845,299.9167,0,U,40977,999,11353,.25477326E-3,.2949E-4,0
HORYU-4,2016-012D,2026-06-09T05:30:56.831616,15.89952627,.00032571,30.9844,137.2122,219.6286,140.4136,0,U,41340,999,56954,.94016727E-3,.305741E-2,0
RAVAN,2016-067B,2026-06-09T04:32:44.040768,15.53910787,.00056009,97.9900,48.8416,53.1703,307.0061,0,U,41849,999,52645,.69793119E-3,.45081E-3,0
CELTEE 1,2016-067C,2026-06-08T09:12:30.678624,15.19595408,.00006258,98.0685,25.3505,106.7454,253.3848,0,U,41850,999,52454,.24341958E-3,.5104E-4,0
OPTICUBE 04,2016-067D,2026-06-09T03:00:28.265760,15.09626427,.00165052,98.0714,11.9886,140.9303,219.3120,0,U,41851,999,52395,.14751792E-3,.2307E-4,0
AEROCUBE 8D,2016-067E,2026-06-09T01:57:16.253568,15.24283465,.00042239,98.0697,29.6364,143.3321,216.8204,0,U,41852,999,52483,.24290505E-3,.5853E-4,0
AEROCUBE 8C,2016-067F,2026-06-09T04:09:40.083840,15.24531499,.00068207,98.0570,26.9733,90.4870,269.7147,0,U,41853,999,52484,.28603165E-3,.6962E-4,0
CORVUS BC2,2017-042X,2026-06-08T21:22:58.621728,15.06243536,.00142172,97.4057,321.5648,135.9338,224.3026,0,U,42846,999,48581,.19451319E-3,.28E-4,0
CORVUS BC1,2017-042Y,2026-06-08T10:07:00.287904,15.06407941,.00133065,97.4085,321.9220,115.8711,244.3891,0,U,42847,999,48577,.19173968E-3,.2771E-4,0
MAKERSAT 0,2017-073D,2026-06-07T15:26:30.138432,15.31756991,.01061352,97.4640,41.0894,307.5668,51.5969,0,U,43016,999,46500,.58053729E-3,.21201E-3,0
